STARLINK-35903          
1 67168U 25303F   25351.60835648 -.00002699  85337-5  00000+0 0  9994
2 67168  43.0100  69.0834 0011500 323.6500   9.4800 16.01284782    15
STARLINK-35839          
1 67169U 25303G   25351.60835648 -.00002699  85337-5  00000+0 0  9995
2 67169  43.0100  69.0834 0011500 323.6500   9.4800 16.01284782    16
STARLINK-35863          
1 67170U 25303H   25351.60835648 -.00002699  85337-5  00000+0 0  9997
2 67170  43.0100  69.0834 0011500 323.6500   9.4800 16.01284782    18
STARLINK-35771          
1 67171U 25303J   25351.60835648 -.00002699  85337-5  00000+0 0  9998
2 67171  43.0100  69.0834 0011500 323.6500   9.4800 16.01284782    19
STARLINK-35762          
1 67172U 25303K   25351.60835648 -.00002699  85337-5  00000+0 0  9999
2 67172  43.0100  69.0834 0011500 323.6500   9.4800 16.01284782    10
STARLINK-36183          
1 67173U 25303L   25351.60835648 -.00002699  85337-5  00000+0 0  9990
2 67173  43.0100  69.0834 0011500 323.6500   9.4800 16.01284782    11
STARLINK-36210          
1 67174U 25303M   25351.60835648 -.00002699  85337-5  00000+0 0  9991
2 67174  43.0100  69.0834 0011500 323.6500   9.4800 16.01284782    12
STARLINK-35756          
1 67175U 25303N   25351.60835648 -.00002699  85337-5  00000+0 0  9992
2 67175  43.0100  69.0834 0011500 323.6500   9.4800 16.01284782    13
STARLINK-35785          
1 67176U 25303P   25351.60835648 -.00002699  85337-5  00000+0 0  9993
2 67176  43.0100  69.0834 0011500 323.6500   9.4800 16.01284782    14
STARLINK-35853          
1 67177U 25303Q   25351.60835648 -.00002699  85337-5  00000+0 0  9994
2 67177  43.0100  69.0834 0011500 323.6500   9.4800 16.01284782    15
STARLINK-35878          
1 67178U 25303R   25351.60835648 -.00002699  85337-5  00000+0 0  9995
2 67178  43.0100  69.0834 0011500 323.6500   9.4800 16.01284782    16
STARLINK-35793          
1 67179U 25303S   25351.60835648 -.00002699  85337-5  00000+0 0  9996
2 67179  43.0100  69.0834 0011500 323.6500   9.4800 16.01284782    17
STARLINK-35876          
1 67180U 25303T   25351.60835648 -.00002699  85337-5  00000+0 0  9998
2 67180  43.0100  69.0834 0011500 323.6500   9.4800 16.01284782    19
STARLINK-35766          
1 67181U 25303U   25351.60835648 -.00002699  85337-5  00000+0 0  9999
2 67181  43.0100  69.0834 0011500 323.6500   9.4800 16.01284782    10
STARLINK-35782          
1 67182U 25303V   25351.60835648 -.00002699  85337-5  00000+0 0  9990
2 67182  43.0100  69.0834 0011500 323.6500   9.4800 16.01284782    11
STARLINK-35719          
1 67183U 25303W   25351.60835648 -.00002699  85337-5  00000+0 0  9991
2 67183  43.0100  69.0834 0011500 323.6500   9.4800 16.01284782    12
STARLINK-35910          
1 67184U 25303X   25351.60835648 -.00002699  85337-5  00000+0 0  9992
2 67184  43.0100  69.0834 0011500 323.6500   9.4800 16.01284782    13
STARLINK-35859          
1 67185U 25303Y   25351.60835648 -.00002699  85337-5  00000+0 0  9993
2 67185  43.0100  69.0834 0011500 323.6500   9.4800 16.01284782    14
STARLINK-35857          
1 67186U 25303Z   25351.60835648 -.00002699  85337-5  00000+0 0  9994
2 67186  43.0100  69.0834 0011500 323.6500   9.4800 16.01284782    15
STARLINK-35880          
1 67187U 25303AA  25351.60835648 -.00002699  85337-5  00000+0 0  9995
2 67187  43.0100  69.0834 0011500 323.6500   9.4800 16.01284782    16
STARLINK-35675          
1 67188U 25303AB  25351.60835648 -.00002699  85337-5  00000+0 0  9996
2 67188  43.0100  69.0834 0011500 323.6500   9.4800 16.01284782    17
STARLINK-35889          
1 67189U 25303AC  25351.60835648 -.00002699  85337-5  00000+0 0  9997
2 67189  43.0100  69.0834 0011500 323.6500   9.4800 16.01284782    18
STARLINK-35888          
1 67190U 25303AD  25351.60835648 -.00002699  85337-5  00000+0 0  9999
2 67190  43.0100  69.0834 0011500 323.6500   9.4800 16.01284782    10
STARLINK-35716          
1 67191U 25303AE  25351.60835648 -.00002699  85337-5  00000+0 0  9990
2 67191  43.0100  69.0834 0011500 323.6500   9.4800 16.01284782    11
STARLINK-36182          
1 67192U 25304A   26008.16668980  .00039659  00000+0  90457-3 0  9998
2 67192  70.0001 333.3280 0003443 272.8952  41.6687 15.42704154  4689
STARLINK-36279          
1 67193U 25304B   26008.09951427  .00041571  00000+0  67389-3 0  9996
2 67193  70.0000 333.4421 0002978 259.6230 100.4621 15.52561886  4654
STARLINK-36284          
1 67194U 25304C   26008.09928447 -.00278992  00000+0 -48046-2 0  9992
2 67194  70.0002 333.4411 0002974 290.0228  70.0638 15.51866170  4651
STARLINK-36291          
1 67195U 25304D   26008.16325989  .00066709  00000+0  10767-2 0  9991
2 67195  70.0001 333.2628 0003003 268.0705  92.0137 15.52551747  4669
STARLINK-36239          
1 67196U 25304E   26008.16668980 -.02246728  00000+0 -54041-1 0  9990
2 67196  70.0001 333.2768 0003333 276.2422  81.5194 15.44978727  4712
STARLINK-36283          
1 67197U 25304F   26008.16222316  .00093812  00000+0  15055-2 0  9993
2 67197  70.0002 333.2587 0003044 262.1023  97.9818 15.52597676  4660
STARLINK-36267          
1 67198U 25304G   26008.16257448  .00079330  00000+0  12778-2 0  9996
2 67198  70.0001 333.2600 0002867 263.8975  96.1885 15.52553900  4636
STARLINK-36268          
1 67199U 25304H   26008.16188520  .00087448  00000+0  14063-2 0  9999
2 67199  70.0001 333.2572 0003023 263.9007  96.1836 15.52564208  4669
STARLINK-36270          
1 67200U 25304J   26008.16668980  .00033256  00000+0  75988-3 0  9997
2 67200  70.0000 333.3025 0003502 276.7554  59.8258 15.42696883  4710
STARLINK-36262          
1 67201U 25304K   26008.16668980 -.02026351  00000+0 -45716-1 0  9994
2 67201  69.9996 333.2539 0003656 267.9448 108.1387 15.46443583  4717
STARLINK-36263          
1 67202U 25304L   26008.16089140 -.00119092  00000+0 -19766-2 0  9990
2 67202  70.0002 333.2533 0003087 268.1027  91.9806 15.52315770  4669
STARLINK-36224          
1 67203U 25304M   26008.16051546  .00071113  00000+0  11471-2 0  9994
2 67203  70.0002 333.2515 0003189 269.4096  90.6725 15.52549837  4662
STARLINK-36185          
1 67204U 25304N   26008.09574343  .00071314  00000+0  11505-2 0  9993
2 67204  70.0001 333.4264 0003067 263.8979  96.1858 15.52544760  4655
STARLINK-36197          
1 67205U 25304P   26008.15982979  .00079408  00000+0  12790-2 0  9998
2 67205  70.0002 333.2487 0003161 266.7856  93.2969 15.52554839  4630
STARLINK-36056          
1 67206U 25304Q   26008.15948616  .00070912  00000+0  11437-2 0  9997
2 67206  70.0003 333.2473 0003297 269.4524  90.6285 15.52554555  4636
STARLINK-36225          
1 67207U 25304R   26008.15914326  .00083608  00000+0  13457-2 0  9999
2 67207  70.0002 333.2460 0003182 264.5601  95.5223 15.52556913  4666
STARLINK-36265          
1 67208U 25304S   26008.16668980 -.02016881  00000+0 -45979-1 0  9999
2 67208  70.0010 333.2387 0003599 269.0048 118.9602 15.46127593  4719
STARLINK-36226          
1 67209U 25304T   26008.15853423 -.00252766  00000+0 -43075-2 0  9995
2 67209  70.0002 333.2439 0003301 267.5559  92.5249 15.52063933  4662
STARLINK-36173          
1 67210U 25304U   26008.15811451  .00073376  00000+0  11830-2 0  9992
2 67210  70.0002 333.2420 0003168 265.1797  94.9028 15.52554097  4660
STARLINK-36280          
1 67211U 25304V   26008.15777131  .00081784  00000+0  13166-2 0  9995
2 67211  70.0002 333.2405 0003255 266.9839  93.0976 15.52557694  4665
STARLINK-36213          
1 67212U 25304W   26008.15742903  .00087069  00000+0  14006-2 0  9991
2 67212  70.0001 333.2393 0003091 268.5772  91.5061 15.52557904  4665
STARLINK-36199          
1 67213U 25304X   26008.15708624  .00064393  00000+0  10399-2 0  9990
2 67213  70.0004 333.2379 0003114 267.3423  92.7407 15.52548728  4660
STARLINK-36203          
1 67214U 25304Y   26008.15674190  .00041167  00000+0  66778-3 0  9998
2 67214  70.0003 333.2367 0003267 266.2441  93.8372 15.52545132  4663
STARLINK-36221          
1 67215U 25304Z   26008.15640037  .00030624  00000+0  49829-3 0  9996
2 67215  70.0003 333.2354 0003120 264.2300  95.8532 15.52536218  4665
STARLINK-36212          
1 67216U 25304AA  26008.15605619  .00075830  00000+0  12219-2 0  9994
2 67216  70.0002 333.2338 0003169 265.5644  94.5180 15.52558151  4660
STARLINK-36216          
1 67217U 25304AB  26008.15571397  .00080895  00000+0  13026-2 0  9994
2 67217  70.0002 333.2325 0003116 265.6317  94.4514 15.52556963  4666
STARLINK-36211          
1 67218U 25304AC  26008.15537087  .00063743  00000+0  10293-2 0  9999
2 67218  70.0003 333.2312 0003050 269.1469  90.9368 15.52553590  4636
DISKSAT C               
1 67219U 25305A   26005.69900138  .00001015  00000+0  84298-4 0  9990
2 67219  45.0131 223.8990 0003154  11.0070 349.0874 15.06198836  2796
DISKSAT B               
1 67220U 25305B   26005.43427616  .00001001  00000+0  83453-4 0  9996
2 67220  45.0028 225.3108 0003243 352.9991   7.0838 15.06147621  2752
DISKSAT D               
1 67221U 25305C   26005.89915826  .00002166  00000+0  16191-3 0  9999
2 67221  45.0078 222.8570 0002166 333.6106  26.4659 15.06124325  2819
DISKSAT A               
1 67222U 25305D   26005.90008514  .00002165  00000+0  16210-3 0  9990
2 67222  45.0220 222.8356 0006999   4.6093 355.4846 15.06068517  2812
ELECTRON KICK STAGE R/B 
1 67223U 25305E   25357.29083347  .00018707  00000+0  18366-3 0  9992
2 67223  44.9877 292.9264 0177490 166.6089 193.9601 15.48545747   794
TJS-23                  
1 67226U 25306A   26008.04260755  .00000022  00000+0  00000+0 0  9996
2 67226   5.9524 298.3178 0000121 322.8155  37.3551  1.00268525   281
CZ-5 R/B                
1 67227U 25306B   26005.86411551  .00010177  00000+0  27187-2 0  9996
2 67227  16.3184 293.6328 7578688 188.9627 138.8364  1.92397345   334
QPS-SAR-15              
1 67228U 25307A   26008.11042087  .00004556  00000+0  40142-3 0  9994
2 67228  42.0078  25.9259 0008462  19.1356 340.9785 14.97301498  2672
